start=new Date('2023-01-06T00:00:00.000Z').valueOf();
sats=[{"MEAN_ANOMALY":"319.2846","OBJECT_NAME":"STARLINK-3520","LAUNCH_DATE":"2022-02-21","RA_OF_ASC_NODE":"123.5011","SEMIMAJOR_AXIS":"6917.814","DECAY_DATE":null,"MEAN_ELEMENT_THEORY":"SGP4","EPOCH":"2023-01-05T08:57:56.079072","MEAN_MOTION_DDOT":"0.0000000000000","TLE_LINE1":"1 51741U 22016AD  23005.37356573  .00005562  00000-0  36709-3 0  9994","SITE":"AFETR","MEAN_MOTION_DOT":"0.00005562","NORAD_CAT_ID":"51741","TLE_LINE2":"2 51741  53.2159 123.5011 0002605  40.8341 319.2846 15.08861640 48544","INCLINATION":"53.2159","OBJECT_ID":"2022-016AD","REV_AT_EPOCH":"4854","ARG_OF_PERICENTER":"40.8341","FILE":"3732939","TIME_SYSTEM":"UTC","CLASSIFICATION_TYPE":"U","RCS_SIZE":"LARGE","GP_ID":"222263596","REF_FRAME":"TEME","CENTER_NAME":"EARTH","ELEMENT_SET_NO":"999","BSTAR":"0.00036709000000","COUNTRY_CODE":"US","APOAPSIS":"541.481","MEAN_MOTION":"15.08861640","EPHEMERIS_TYPE":"0","OBJECT_TYPE":"PAYLOAD","PERIAPSIS":"537.877","PERIOD":"95.436","ECCENTRICITY":"0.00026050"},{"RCS_SIZE":"LARGE","CLASSIFICATION_TYPE":"U","GP_ID":"222289299","BSTAR":"-0.00005097500000","ELEMENT_SET_NO":"999","CENTER_NAME":"EARTH","REF_FRAME":"TEME","MEAN_MOTION":"15.08827354","APOAPSIS":"541.692","COUNTRY_CODE":"US","EPHEMERIS_TYPE":"0","OBJECT_TYPE":"PAYLOAD","PERIOD":"95.438","PERIAPSIS":"537.876","ECCENTRICITY":"0.00027580","RA_OF_ASC_NODE":"122.3766","LAUNCH_DATE":"2022-02-21","SEMIMAJOR_AXIS":"6917.919","OBJECT_NAME":"STARLINK-3521","MEAN_ANOMALY":"305.7848","EPOCH":"2023-01-05T14:58:18.491232","MEAN_ELEMENT_THEORY":"SGP4","DECAY_DATE":null,"SITE":"AFETR","TLE_LINE1":"1 51742U 22016AE  23005.62382513 -.00001099  00000-0 -50975-4 0  9991","MEAN_MOTION_DDOT":"0.0000000000000","NORAD_CAT_ID":"51742","MEAN_MOTION_DOT":"-0.00001099","INCLINATION":"53.2201","TLE_LINE2":"2 51742  53.2201 122.3766 0002758  54.3401 305.7848 15.08827354 48583","TIME_SYSTEM":"UTC","ARG_OF_PERICENTER":"54.3401","FILE":"3732963","REV_AT_EPOCH":"4858","OBJECT_ID":"2022-016AE"},{"ARG_OF_PERICENTER":"41.8733","FILE":"3732963","TIME_SYSTEM":"UTC","OBJECT_ID":"2022-016AF","REV_AT_EPOCH":"4873","TLE_LINE2":"2 51743  53.2180 111.9466 0002914  41.8733 318.2481 15.08826286 48736","INCLINATION":"53.2180","NORAD_CAT_ID":"51743","MEAN_MOTION_DOT":"-0.00001632","SITE":"AFETR","MEAN_MOTION_DDOT":"0.0000000000000","TLE_LINE1":"1 51743U 22016AF  23005.71675506 -.00001632  00000-0 -84445-4 0  9991","DECAY_DATE":null,"EPOCH":"2023-01-05T17:12:07.637184","MEAN_ELEMENT_THEORY":"SGP4","OBJECT_NAME":"STARLINK-3512","RA_OF_ASC_NODE":"111.9466","LAUNCH_DATE":"2022-02-21","SEMIMAJOR_AXIS":"6917.922","MEAN_ANOMALY":"318.2481","ECCENTRICITY":"0.00029140","PERIAPSIS":"537.771","PERIOD":"95.438","OBJECT_TYPE":"PAYLOAD","EPHEMERIS_TYPE":"0","APOAPSIS":"541.803","MEAN_MOTION":"15.08826286","COUNTRY_CODE":"US","BSTAR":"-0.00008444500000","ELEMENT_SET_NO":"999","REF_FRAME":"TEME","CENTER_NAME":"EARTH","GP_ID":"222289549","RCS_SIZE":"LARGE","CLASSIFICATION_TYPE":"U"},{"PERIAPSIS":"537.453","PERIOD":"95.435","ECCENTRICITY":"0.00031590","COUNTRY_CODE":"US","APOAPSIS":"541.823","MEAN_MOTION":"15.08875190","EPHEMERIS_TYPE":"0","OBJECT_TYPE":"PAYLOAD","GP_ID":"222290300","REF_FRAME":"TEME","CENTER_NAME":"EARTH","ELEMENT_SET_NO":"999","BSTAR":"0.00073967000000","CLASSIFICATION_TYPE":"U","RCS_SIZE":"LARGE","OBJECT_ID":"2022-016AG","REV_AT_EPOCH":"4858","ARG_OF_PERICENTER":"37.4739","FILE":"3732963","TIME_SYSTEM":"UTC","TLE_LINE2":"2 51744  53.2158 122.4049 0003159  37.4739 322.6473 15.08875190 48586","INCLINATION":"53.2158","MEAN_MOTION_DDOT":"0.0000000000000","TLE_LINE1":"1 51744U 22016AG  23005.61739862  .00011515  00000-0  73967-3 0  9992","SITE":"AFETR","MEAN_MOTION_DOT":"0.00011515","NORAD_CAT_ID":"51744","MEAN_ANOMALY":"322.6473","OBJECT_NAME":"STARLINK-3452","LAUNCH_DATE":"2022-02-21","SEMIMAJOR_AXIS":"6917.773","RA_OF_ASC_NODE":"122.4049","DECAY_DATE":null,"MEAN_ELEMENT_THEORY":"SGP4","EPOCH":"2023-01-05T14:49:03.240768"},{"TLE_LINE2":"2 51745  53.2153 123.5312 0003169  41.2675 318.8556 15.08871784 48540","INCLINATION":"53.2153","FILE":"3732939","ARG_OF_PERICENTER":"41.2675","TIME_SYSTEM":"UTC","OBJECT_ID":"2022-016AH","REV_AT_EPOCH":"4854","OBJECT_NAME":"STARLINK-3449","LAUNCH_DATE":"2022-02-21","SEMIMAJOR_AXIS":"6917.783","RA_OF_ASC_NODE":"123.5312","MEAN_ANOMALY":"318.8556","DECAY_DATE":null,"MEAN_ELEMENT_THEORY":"SGP4","EPOCH":"2023-01-05T08:47:20.007456","SITE":"AFETR","MEAN_MOTION_DDOT":"0.0000000000000","TLE_LINE1":"1 51745U 22016AH  23005.36620379  .00010966  00000-0  70540-3 0  9990","NORAD_CAT_ID":"51745","MEAN_MOTION_DOT":"0.00010966","APOAPSIS":"541.840","MEAN_MOTION":"15.08871784","COUNTRY_CODE":"US","EPHEMERIS_TYPE":"0","OBJECT_TYPE":"PAYLOAD","PERIAPSIS":"537.456","PERIOD":"95.436","ECCENTRICITY":"0.00031690","RCS_SIZE":"LARGE","CLASSIFICATION_TYPE":"U","GP_ID":"222263097","BSTAR":"0.00070540000000","ELEMENT_SET_NO":"999","REF_FRAME":"TEME","CENTER_NAME":"EARTH"},{"COUNTRY_CODE":"US","MEAN_MOTION":"15.08862137","APOAPSIS":"541.810","OBJECT_TYPE":"PAYLOAD","EPHEMERIS_TYPE":"0","PERIOD":"95.436","PERIAPSIS":"537.545","ECCENTRICITY":"0.00030830","CLASSIFICATION_TYPE":"U","RCS_SIZE":"LARGE","GP_ID":"222263848","CENTER_NAME":"EARTH","REF_FRAME":"TEME","ELEMENT_SET_NO":"999","BSTAR":"0.00030480000000","INCLINATION":"53.2161","TLE_LINE2":"2 51746  53.2161 112.5675 0003083  38.6283 321.4929 15.08862137 48715","REV_AT_EPOCH":"4871","OBJECT_ID":"2022-016AJ","TIME_SYSTEM":"UTC","FILE":"3732939","ARG_OF_PERICENTER":"38.6283","MEAN_ANOMALY":"321.4929","LAUNCH_DATE":"2022-02-21","SEMIMAJOR_AXIS":"6917.813","RA_OF_ASC_NODE":"112.5675","OBJECT_NAME":"STARLINK-3502","MEAN_ELEMENT_THEORY":"SGP4","EPOCH":"2023-01-05T13:56:00.239712","DECAY_DATE":null,"TLE_LINE1":"1 51746U 22016AJ  23005.58055833  .00004569  00000-0  30480-3 0  9993","MEAN_MOTION_DDOT":"0.0000000000000","SITE":"AFETR","MEAN_MOTION_DOT":"0.00004569","NORAD_CAT_ID":"51746"},{"TLE_LINE2":"2 51747  53.2154 121.7993 0002993  33.5024 326.6157 15.08826993 48607","INCLINATION":"53.2154","OBJECT_ID":"2022-016AK","REV_AT_EPOCH":"4860","ARG_OF_PERICENTER":"33.5024","FILE":"3732963","TIME_SYSTEM":"UTC","DECAY_DATE":null,"EPOCH":"2023-01-05T18:03:47.201760","MEAN_ELEMENT_THEORY":"SGP4","MEAN_ANOMALY":"326.6157","OBJECT_NAME":"STARLINK-3446","SEMIMAJOR_AXIS":"6917.920","LAUNCH_DATE":"2022-02-21","RA_OF_ASC_NODE":"121.7993","MEAN_MOTION_DOT":"-0.00001601","NORAD_CAT_ID":"51747","MEAN_MOTION_DDOT":"0.0000000000000","TLE_LINE1":"1 51747U 22016AK  23005.75262965 -.00001601  00000-0 -82477-4 0  9999","SITE":"AFETR","EPHEMERIS_TYPE":"0","OBJECT_TYPE":"PAYLOAD","COUNTRY_CODE":"US","APOAPSIS":"541.856","MEAN_MOTION":"15.08826993","ECCENTRICITY":"0.00029930","PERIAPSIS":"537.715","PERIOD":"95.438","CLASSIFICATION_TYPE":"U","RCS_SIZE":"LARGE","REF_FRAME":"TEME","CENTER_NAME":"EARTH","ELEMENT_SET_NO":"999","BSTAR":"-0.00008247700000","GP_ID":"222290050"},{"ECCENTRICITY":"0.00026130","PERIAPSIS":"537.903","PERIOD":"95.437","OBJECT_TYPE":"PAYLOAD","EPHEMERIS_TYPE":"0","COUNTRY_CODE":"US","APOAPSIS":"541.518","MEAN_MOTION":"15.08851360","REF_FRAME":"TEME","CENTER_NAME":"EARTH","BSTAR":"0.00016453000000","ELEMENT_SET_NO":"999","GP_ID":"222263348","CLASSIFICATION_TYPE":"U","RCS_SIZE":"LARGE","OBJECT_ID":"2022-016AL","REV_AT_EPOCH":"4869","FILE":"3732939","ARG_OF_PERICENTER":"37.0610","TIME_SYSTEM":"UTC","TLE_LINE2":"2 51748  53.2167 113.1989 0002613  37.0610 323.0562 15.08851360 48697","INCLINATION":"53.2167","MEAN_MOTION_DOT":"0.00002332","NORAD_CAT_ID":"51748","MEAN_MOTION_DDOT":"0.0000000000000","TLE_LINE1":"1 51748U 22016AL  23005.44072136  .00002332  00000-0  16453-3 0  9995","SITE":"AFETR","DECAY_DATE":null,"MEAN_ELEMENT_THEORY":"SGP4","EPOCH":"2023-01-05T10:34:38.325504","MEAN_ANOMALY":"323.0562","OBJECT_NAME":"STARLINK-3501","LAUNCH_DATE":"2022-02-21","RA_OF_ASC_NODE":"113.1989","SEMIMAJOR_AXIS":"6917.846"},{"SITE":"AFETR","MEAN_MOTION_DDOT":"0.0000000000000","TLE_LINE1":"1 51749U 22016AM  23005.78299250  .00002727  00000-0  18925-3 0  9995","NORAD_CAT_ID":"51749","MEAN_MOTION_DOT":"0.00002727","OBJECT_NAME":"STARLINK-3451","RA_OF_ASC_NODE":"121.6594","LAUNCH_DATE":"2022-02-21","SEMIMAJOR_AXIS":"6917.787","MEAN_ANOMALY":"317.5929","DECAY_DATE":null,"EPOCH":"2023-01-05T18:47:30.552000","MEAN_ELEMENT_THEORY":"SGP4","ARG_OF_PERICENTER":"42.5264","FILE":"3732963","TIME_SYSTEM":"UTC","OBJECT_ID":"2022-016AM","REV_AT_EPOCH":"4860","TLE_LINE2":"2 51749  53.2152 121.6594 0002596  42.5264 317.5929 15.08870656 48609","INCLINATION":"53.2152","GP_ID":"222291046","ELEMENT_SET_NO":"999","BSTAR":"0.00018925000000","REF_FRAME":"TEME","CENTER_NAME":"EARTH","RCS_SIZE":"LARGE","CLASSIFICATION_TYPE":"U","PERIAPSIS":"537.856","PERIOD":"95.436","ECCENTRICITY":"0.00025960","APOAPSIS":"541.448","MEAN_MOTION":"15.08870656","COUNTRY_CODE":"US","EPHEMERIS_TYPE":"0","OBJECT_TYPE":"PAYLOAD"},{"REV_AT_EPOCH":"4871","OBJECT_ID":"2022-016AN","TIME_SYSTEM":"UTC","FILE":"3732939","ARG_OF_PERICENTER":"42.3903","INCLINATION":"53.2151","TLE_LINE2":"2 51750  53.2151 112.6365 0002746  42.3903 317.7301 15.08873182 48716","TLE_LINE1":"1 51750U 22016AN  23005.56584303  .00013091  00000-0  83832-3 0  9994","MEAN_MOTION_DDOT":"0.0000000000000","SITE":"AFETR","MEAN_MOTION_DOT":"0.00013091","NORAD_CAT_ID":"51750","MEAN_ANOMALY":"317.7301","LAUNCH_DATE":"2022-02-21","RA_OF_ASC_NODE":"112.6365","SEMIMAJOR_AXIS":"6917.779","OBJECT_NAME":"STARLINK-3505","EPOCH":"2023-01-05T13:34:48.837792","MEAN_ELEMENT_THEORY":"SGP4","DECAY_DATE":null,"PERIOD":"95.435","PERIAPSIS":"537.744","ECCENTRICITY":"0.00027460","COUNTRY_CODE":"US","MEAN_MOTION":"15.08873182","APOAPSIS":"541.544","EPHEMERIS_TYPE":"0","OBJECT_TYPE":"PAYLOAD","GP_ID":"222264349","CENTER_NAME":"EARTH","REF_FRAME":"TEME","ELEMENT_SET_NO":"999","BSTAR":"0.00083832000000","CLASSIFICATION_TYPE":"U","RCS_SIZE":"LARGE"}];
